NORAD_CAT_ID,OBJECT_NAME,OBJECT_TYPE,EPOCH,MEAN_MOTION,ECCENTRICITY,INCLINATION,RA_OF_ASC_NODE,ARG_OF_PERICENTER,MEAN_ANOMALY,BSTAR,MEAN_MOTION_DOT,MEAN_MOTION_DDOT,TLE_LINE0,TLE_LINE1,TLE_LINE2,SEMIMAJOR_AXIS,PERIOD,APOGEE,PERIGEE,DECAYED
53278.0,STARLINK-4180,PAYLOAD,2024-07-10 09:35:15,15.08820344,0.0001056,53.2164,30.3528,87.0104,273.1009,-0.00032911,-5.519e-05,0.0,0 STARLINK-4180,1 53278U 22086AN  24192.39948813 -.00005519  00000-0 -32911-3 0  9997,2 53278  53.2164  30.3528 0001056  87.0104 273.1009 15.08820344109345,6917.94,95.439,540.536,539.075,0.0
53278.0,STARLINK-4180,PAYLOAD,2024-07-10 20:42:57,15.0882998,0.0001005,53.2168,28.2689,79.9675,280.1431,-0.00024616,-4.202e-05,0.0,0 STARLINK-4180,1 53278U 22086AN  24192.86316916 -.00004202  00000-0 -24616-3 0  9993,2 53278  53.2168  28.2689 0001005  79.9675 280.1431 15.08829980109410,6917.911,95.438,540.471,539.081,0.0
53278.0,STARLINK-4180,PAYLOAD,2024-07-11 12:36:48,15.08838856,9.19e-05,53.217,25.2949,85.0309,275.0788,-0.00015862,-2.811e-05,0.0,0 STARLINK-4180,1 53278U 22086AN  24193.52556620 -.00002811  00000-0 -15862-3 0  9992,2 53278  53.2170  25.2949 0000919  85.0309 275.0788 15.08838856109683,6917.884,95.438,540.385,539.113,0.0
53278.0,STARLINK-4180,PAYLOAD,2024-07-11 18:58:21,15.08843723,8.94e-05,53.2162,24.108,86.2186,273.8909,0.00059968,9.27e-05,0.0,0 STARLINK-4180,1 53278U 22086AN  24193.79053003  .00009270  00000-0  59968-3 0  9997,2 53278  53.2162  24.1080 0000894  86.2186 273.8909 15.08843723109552,6917.869,95.437,540.352,539.116,0.0
53278.0,STARLINK-4180,PAYLOAD,2024-07-12 12:27:36,15.08847435,0.0001541,53.2164,20.8379,80.2171,279.8995,0.00047211,7.235e-05,0.0,0 STARLINK-4180,1 53278U 22086AN  24194.51917305  .00007235  00000-0  47211-3 0  9999,2 53278  53.2164  20.8379 0001541  80.2171 279.8995 15.08847435109663,6917.858,95.437,540.789,538.657,0.0
53278.0,STARLINK-4180,PAYLOAD,2024-07-12 18:49:08,15.08850119,0.0001002,53.2165,19.6482,81.754,278.3566,0.00065134,0.00010096,0.0,0 STARLINK-4180,1 53278U 22086AN  24194.78413126  .00010096  00000-0  65134-3 0  9993,2 53278  53.2165  19.6482 0001002  81.7540 278.3566 15.08850119109877,6917.849,95.437,540.408,539.021,0.0
53278.0,STARLINK-4180,PAYLOAD,2024-07-13 05:56:51,15.08847785,9.83e-05,53.217,17.5678,73.1526,286.9574,0.00082874,0.00012929,0.0,0 STARLINK-4180,1 53278U 22086AN  24195.24781250  .00012929  00000-0  82874-3 0  9998,2 53278  53.2170  17.5678 0000983  73.1526 286.9574 15.08847785109771,6917.857,95.437,540.402,539.042,0.0
53278.0,STARLINK-4180,PAYLOAD,2024-07-13 21:50:41,15.08869666,0.0001082,53.2186,14.592,89.0311,271.0805,0.0010585,0.00016612,0.0,0 STARLINK-4180,1 53278U 22086AN  24195.91020432  .00016612  00000-0  10585-2 0  9992,2 53278  53.2186  14.5920 0001082  89.0311 271.0805 15.08869666110040,6917.79,95.436,540.403,538.906,0.0
53278.0,STARLINK-4180,PAYLOAD,2024-07-14 18:30:42,15.0885518,9.14e-05,53.2187,10.7268,99.4669,260.6427,0.00054067,8.331e-05,0.0,0 STARLINK-4180,1 53278U 22086AN  24196.77132325  .00008331  00000-0  54067-3 0  9995,2 53278  53.2187  10.7268 0000914  99.4669 260.6427 15.08855180110004,6917.834,95.437,540.331,539.067,0.0
53278.0,STARLINK-4180,PAYLOAD,2024-07-15 04:03:01,15.08845779,9.35e-05,53.2181,8.943,101.6315,258.4782,0.00034098,5.144e-05,0.0,0 STARLINK-4180,1 53278U 22086AN  24197.16876393  .00005144  00000-0  34098-3 0  9990,2 53278  53.2181   8.9430 0000935 101.6315 258.4782 15.08845779110063,6917.863,95.437,540.375,539.081,0.0
53278.0,STARLINK-4180,PAYLOAD,2024-07-15 11:59:57,15.08836436,0.0001819,53.2188,7.4543,85.3147,274.8053,8.4602e-05,1.058e-05,0.0,0 STARLINK-4180,1 53278U 22086AN  24197.49996849  .00001058  00000-0  84602-4 0  9992,2 53278  53.2188   7.4543 0001819  85.3147 274.8053 15.08836436110289,6917.891,95.438,541.015,538.498,0.0
53278.0,STARLINK-4180,PAYLOAD,2024-07-15 18:21:30,15.0883895,0.0001134,53.2184,6.2666,91.9692,268.143,0.00122,0.00019181,0.0,0 STARLINK-4180,1 53278U 22086AN  24197.76493119  .00019181  00000-0  12200-2 0  9993,2 53278  53.2184   6.2666 0001134  91.9692 268.1430 15.08838950110150,6917.884,95.438,540.533,538.964,0.0
53278.0,STARLINK-4180,PAYLOAD,2024-07-16 03:53:49,15.08838318,0.0001114,53.2181,4.4838,86.412,273.7,0.00082,0.00012786,0.0,0 STARLINK-4180,1 53278U 22086AN  24198.16237422  .00012786  00000-0  82000-3 0  9991,2 53278  53.2181   4.4838 0001114  86.4120 273.7000 15.08838318110211,6917.886,95.438,540.521,538.98,0.0
53278.0,STARLINK-4180,PAYLOAD,2024-07-16 16:36:54,15.08839417,0.0001311,53.2184,2.1082,110.567,249.5462,0.00043037,6.568e-05,0.0,0 STARLINK-4180,1 53278U 22086AN  24198.69229582  .00006568  00000-0  43037-3 0  9995,2 53278  53.2184   2.1082 0001311 110.5670 249.5462 15.08839417110290,6917.882,95.438,540.654,538.84,0.0
53278.0,STARLINK-4180,PAYLOAD,2024-07-17 03:44:34,15.08910021,0.0001284,53.2172,0.0192,30.8279,329.2789,0.0019515,0.00030967,0.0,0 STARLINK-4180,1 53278U 22086AN  24199.15594934  .00030967  00000-0  19515-2 0  9996,2 53278  53.2172   0.0192 0001284  30.8279 329.2789 15.08910021110361,6917.666,95.433,540.42,538.643,0.0
53278.0,STARLINK-4180,PAYLOAD,2024-07-17 10:06:07,15.08829812,0.0001981,53.2181,358.8368,86.0753,274.0466,-0.0012957,-0.00020845,0.0,0 STARLINK-4180,1 53278U 22086AN  24199.42092079 -.00020845  00000-0 -12957-2 0  9998,2 53278  53.2181 358.8368 0001981  86.0753 274.0466 15.08829812110405,6917.912,95.438,541.147,538.406,0.0
53278.0,STARLINK-4180,PAYLOAD,2024-07-17 14:52:17,15.08808566,0.0001003,53.2185,357.9441,89.4786,270.6321,-0.0016388,-0.00026252,0.0,0 STARLINK-4180,1 53278U 22086AN  24199.61964403 -.00026252  00000-0 -16388-2 0  9998,2 53278  53.2185 357.9441 0001003  89.4786 270.6321 15.08808566110606,6917.976,95.44,540.535,539.148,0.0
53278.0,STARLINK-4180,PAYLOAD,2024-07-17 18:03:04,15.08812795,0.000122,53.2178,357.3473,86.4778,273.6354,-0.00094806,-0.00015333,0.0,0 STARLINK-4180,1 53278U 22086AN  24199.75213056 -.00015333  00000-0 -94806-3 0  9994,2 53278  53.2178 357.3473 0001220  86.4778 273.6354 15.08812795110457,6917.964,95.439,540.673,538.985,0.0
53278.0,STARLINK-4180,PAYLOAD,2024-07-18 03:35:23,15.08821858,0.0001179,53.2181,355.5631,80.4851,279.6274,-4.8206e-05,-1.055e-05,0.0,0 STARLINK-4180,1 53278U 22086AN  24200.14957505 -.00001055  00000-0 -48206-4 0  9994,2 53278  53.2181 355.5631 0001179  80.4851 279.6274 15.08821858110510,6917.936,95.439,540.616,538.985,0.0
53278.0,STARLINK-4180,PAYLOAD,2024-07-18 09:56:56,15.08822937,0.0001301,53.2182,354.3736,73.6748,286.4387,0.0013997,0.00022048,0.0,0 STARLINK-4180,1 53278U 22086AN  24200.41454478  .00022048  00000-0  13997-2 0  9995,2 53278  53.2182 354.3736 0001301  73.6748 286.4387 15.08822937110723,6917.933,95.439,540.698,538.898,0.0
53278.0,STARLINK-4180,PAYLOAD,2024-07-18 17:53:52,15.08850019,0.0001229,53.217,352.8868,67.6632,292.449,0.0019821,0.00031407,0.0,0 STARLINK-4180,1 53278U 22086AN  24200.74574392  .00031407  00000-0  19821-2 0  9990,2 53278  53.2170 352.8868 0001229  67.6632 292.4490 15.08850019110604,6917.85,95.437,540.565,538.865,0.0
53278.0,STARLINK-4180,PAYLOAD,2024-07-19 09:47:43,15.08845145,0.0001047,53.2174,349.9129,93.2598,266.8514,0.00079948,0.0001246,0.0,0 STARLINK-4180,1 53278U 22086AN  24201.40814465  .00012460  00000-0  79948-3 0  9997,2 53278  53.2174 349.9129 0001047  93.2598 266.8514 15.08845145110706,6917.865,95.437,540.454,539.005,0.0
53278.0,STARLINK-4180,PAYLOAD,2024-07-19 14:33:53,15.08852316,0.0001017,53.2172,349.0209,88.3562,271.7546,0.00081741,0.00012749,0.0,0 STARLINK-4180,1 53278U 22086AN  24201.60686351  .00012749  00000-0  81741-3 0  9994,2 53278  53.2172 349.0209 0001017  88.3562 271.7546 15.08852316110907,6917.843,95.437,540.411,539.004,0.0
53278.0,STARLINK-4180,PAYLOAD,2024-07-19 16:09:16,15.08847703,0.0001044,53.2178,348.7237,82.5983,277.5128,0.00082305,0.00012838,0.0,0 STARLINK-4180,1 53278U 22086AN  24201.67310416  .00012838  00000-0  82305-3 0  9993,2 53278  53.2178 348.7237 0001044  82.5983 277.5128 15.08847703110918,6917.857,95.437,540.444,539.0,0.0
53278.0,STARLINK-4180,PAYLOAD,2024-07-20 03:16:57,15.08851471,0.0001068,53.2157,346.6416,80.1512,279.9601,0.00058621,9.057e-05,0.0,0 STARLINK-4180,1 53278U 22086AN  24202.13678218  .00009057  00000-0  58621-3 0  9995,2 53278  53.2157 346.6416 0001068  80.1512 279.9601 15.08851471110817,6917.845,95.437,540.449,538.972,0.0
53278.0,STARLINK-4180,PAYLOAD,2024-07-20 14:24:39,15.08864773,0.0001104,53.216,344.5608,75.9473,284.1641,0.00077375,0.00012056,0.0,0 STARLINK-4180,1 53278U 22086AN  24202.60045605  .00012056  00000-0  77375-3 0  9995,2 53278  53.2160 344.5608 0001104  75.9473 284.1641 15.08864773111058,6917.805,95.436,540.433,538.906,0.0
53278.0,STARLINK-4180,PAYLOAD,2024-07-20 16:00:02,15.08870702,0.0001129,53.2157,344.2615,89.0913,271.0209,0.00095119,0.00014895,0.0,0 STARLINK-4180,1 53278U 22086AN  24202.66669361  .00014895  00000-0  95119-3 0  9991,2 53278  53.2157 344.2615 0001129  89.0913 271.0209 15.08870702111066,6917.787,95.436,540.433,538.871,0.0
53278.0,STARLINK-4180,PAYLOAD,2024-07-21 12:40:03,15.0883751,0.0001289,53.2159,340.3983,65.8946,294.2181,0.00017258,2.46e-05,0.0,0 STARLINK-4180,1 53278U 22086AN  24203.52782268  .00002460  00000-0  17258-3 0  9992,2 53278  53.2159 340.3983 0001289  65.8946 294.2181 15.08837510111020,6917.888,95.438,540.645,538.861,0.0
53278.0,STARLINK-4180,PAYLOAD,2024-07-21 14:15:27,15.08835582,0.0001195,53.2161,340.1017,66.4053,293.7064,0.0001452,2.023e-05,0.0,0 STARLINK-4180,1 53278U 22086AN  24203.59406316  .00002023  00000-0  14520-3 0  9990,2 53278  53.2161 340.1017 0001195  66.4053 293.7064 15.08835582111202,6917.894,95.438,540.586,538.932,0.0
53278.0,STARLINK-4180,PAYLOAD,2024-07-22 09:20:05,15.08828561,0.0001274,53.2169,336.5301,76.0354,284.0779,0.00023157,3.398e-05,0.0,0 STARLINK-4180,1 53278U 22086AN  24204.38895114  .00003398  00000-0  23157-3 0  9998,2 53278  53.2169 336.5301 0001274  76.0354 284.0779 15.08828561111153,6917.915,95.438,540.662,538.899,0.0
